[{"OBJECT_NAME":"OOV-CUBE (TUBSAT-30)","OBJECT_ID":"2024-128F","EPOCH":"2026-03-04T21:41:08.049696","MEAN_MOTION":15.02205334,"ECCENTRICITY":0.00549234,"INCLINATION":61.9939,"RA_OF_ASC_NODE":229.0603,"ARG_OF_PERICENTER":111.3663,"MEAN_ANOMALY":249.3301,"EPHEMERIS_TYPE":0,"CLASSIFICATION_TYPE":"U","NORAD_CAT_ID":60240,"ELEMENT_SET_NO":999,"REV_AT_EPOCH":9044,"BSTAR":0.0003546024,"MEAN_MOTION_DOT":4.636e-5,"MEAN_MOTION_DDOT":0}]
